[{"OBJECT_NAME":"UNKNOWN","OBJECT_ID":"","EPOCH":"2026-02-15T11:26:49.047648","MEAN_MOTION":14.36892613,"ECCENTRICITY":0.0090792,"INCLINATION":98.7424,"RA_OF_ASC_NODE":137.9574,"ARG_OF_PERICENTER":69.8098,"MEAN_ANOMALY":291.2824,"EPHEMERIS_TYPE":0,"CLASSIFICATION_TYPE":"U","NORAD_CAT_ID":82051,"ELEMENT_SET_NO":999,"REV_AT_EPOCH":58170,"BSTAR":0.0020421,"MEAN_MOTION_DOT":6.292e-5,"MEAN_MOTION_DDOT":0},{"OBJECT_NAME":"UNKNOWN","OBJECT_ID":"","EPOCH":"2026-03-07T15:25:24.724992","MEAN_MOTION":14.39467626,"ECCENTRICITY":0.0205971,"INCLINATION":97.7395,"RA_OF_ASC_NODE":139.6736,"ARG_OF_PERICENTER":28.8551,"MEAN_ANOMALY":332.3847,"EPHEMERIS_TYPE":0,"CLASSIFICATION_TYPE":"U","NORAD_CAT_ID":82073,"ELEMENT_SET_NO":999,"REV_AT_EPOCH":58733,"BSTAR":0.00069348,"MEAN_MOTION_DOT":2.729e-5,"MEAN_MOTION_DDOT":0},{"OBJECT_NAME":"UNKNOWN","OBJECT_ID":"","EPOCH":"2026-03-04T23:34:22.848096","MEAN_MOTION":14.15880577,"ECCENTRICITY":0.008451,"INCLINATION":99.0127,"RA_OF_ASC_NODE":137.8384,"ARG_OF_PERICENTER":169.2082,"MEAN_ANOMALY":191.093,"EPHEMERIS_TYPE":0,"CLASSIFICATION_TYPE":"U","NORAD_CAT_ID":82139,"ELEMENT_SET_NO":999,"REV_AT_EPOCH":49175,"BSTAR":0.001567,"MEAN_MOTION_DOT":3.148e-5,"MEAN_MOTION_DDOT":0},{"OBJECT_NAME":"UNKNOWN","OBJECT_ID":"","EPOCH":"2026-03-07T06:16:42.516480","MEAN_MOTION":13.54333345,"ECCENTRICITY":0.0061061,"INCLINATION":100.472,"RA_OF_ASC_NODE":0.6276,"ARG_OF_PERICENTER":19.9932,"MEAN_ANOMALY":340.3576,"EPHEMERIS_TYPE":0,"CLASSIFICATION_TYPE":"U","NORAD_CAT_ID":82162,"ELEMENT_SET_NO":999,"REV_AT_EPOCH":51574,"BSTAR":0.0067779,"MEAN_MOTION_DOT":4.626e-5,"MEAN_MOTION_DDOT":0},{"OBJECT_NAME":"UNKNOWN","OBJECT_ID":"","EPOCH":"2026-03-06T21:59:38.293152","MEAN_MOTION":14.35278808,"ECCENTRICITY":0.0015579,"INCLINATION":74.032,"RA_OF_ASC_NODE":253.9619,"ARG_OF_PERICENTER":63.4192,"MEAN_ANOMALY":296.8555,"EPHEMERIS_TYPE":0,"CLASSIFICATION_TYPE":"U","NORAD_CAT_ID":82189,"ELEMENT_SET_NO":999,"REV_AT_EPOCH":64449,"BSTAR":0.00011821,"MEAN_MOTION_DOT":3.13e-6,"MEAN_MOTION_DDOT":0},{"OBJECT_NAME":"UNKNOWN","OBJECT_ID":"","EPOCH":"2026-03-07T13:54:04.889664","MEAN_MOTION":13.85887429,"ECCENTRICITY":0.0039236,"INCLINATION":82.9683,"RA_OF_ASC_NODE":170.1058,"ARG_OF_PERICENTER":154.6076,"MEAN_ANOMALY":219.3599,"EPHEMERIS_TYPE":0,"CLASSIFICATION_TYPE":"U","NORAD_CAT_ID":82199,"ELEMENT_SET_NO":999,"REV_AT_EPOCH":62144,"BSTAR":0.00065358,"MEAN_MOTION_DOT":7.7e-6,"MEAN_MOTION_DDOT":0},{"OBJECT_NAME":"UNKNOWN","OBJECT_ID":"","EPOCH":"2026-03-05T06:15:31.226976","MEAN_MOTION":13.93962198,"ECCENTRICITY":0.0496493,"INCLINATION":63.0114,"RA_OF_ASC_NODE":10.9866,"ARG_OF_PERICENTER":301.5238,"MEAN_ANOMALY":53.8211,"EPHEMERIS_TYPE":0,"CLASSIFICATION_TYPE":"U","NORAD_CAT_ID":82205,"ELEMENT_SET_NO":999,"REV_AT_EPOCH":61950,"BSTAR":0.0014257,"MEAN_MOTION_DOT":5.202e-5,"MEAN_MOTION_DDOT":0},{"OBJECT_NAME":"UNKNOWN","OBJECT_ID":"","EPOCH":"2026-03-07T15:44:48.955488","MEAN_MOTION":14.12325746,"ECCENTRICITY":0.0068159,"INCLINATION":99.3147,"RA_OF_ASC_NODE":320.923,"ARG_OF_PERICENTER":106.635,"MEAN_ANOMALY":254.2318,"EPHEMERIS_TYPE":0,"CLASSIFICATION_TYPE":"U","NORAD_CAT_ID":82223,"ELEMENT_SET_NO":999,"REV_AT_EPOCH":46077,"BSTAR":0.0016297,"MEAN_MOTION_DOT":3.022e-5,"MEAN_MOTION_DDOT":0},{"OBJECT_NAME":"UNKNOWN","OBJECT_ID":"","EPOCH":"2026-03-06T16:59:01.792032","MEAN_MOTION":14.14547974,"ECCENTRICITY":0.0072098,"INCLINATION":98.9077,"RA_OF_ASC_NODE":335.9159,"ARG_OF_PERICENTER":315.5005,"MEAN_ANOMALY":73.2659,"EPHEMERIS_TYPE":0,"CLASSIFICATION_TYPE":"U","NORAD_CAT_ID":82250,"ELEMENT_SET_NO":999,"REV_AT_EPOCH":62850,"BSTAR":0.0026518,"MEAN_MOTION_DOT":5.176e-5,"MEAN_MOTION_DDOT":0},{"OBJECT_NAME":"UNKNOWN","OBJECT_ID":"","EPOCH":"2026-03-06T22:48:48.721824","MEAN_MOTION":12.33606487,"ECCENTRICITY":0.075206,"INCLINATION":67.5255,"RA_OF_ASC_NODE":48.228,"ARG_OF_PERICENTER":51.922,"MEAN_ANOMALY":314.722,"EPHEMERIS_TYPE":0,"CLASSIFICATION_TYPE":"U","NORAD_CAT_ID":82272,"ELEMENT_SET_NO":999,"REV_AT_EPOCH":28232,"BSTAR":0.0024811,"MEAN_MOTION_DOT":7.52e-6,"MEAN_MOTION_DDOT":0},{"OBJECT_NAME":"UNKNOWN","OBJECT_ID":"","EPOCH":"2026-03-06T14:23:39.882624","MEAN_MOTION":13.91960469,"ECCENTRICITY":0.0036722,"INCLINATION":81.9384,"RA_OF_ASC_NODE":290.4214,"ARG_OF_PERICENTER":50.3316,"MEAN_ANOMALY":340.662,"EPHEMERIS_TYPE":0,"CLASSIFICATION_TYPE":"U","NORAD_CAT_ID":82303,"ELEMENT_SET_NO":999,"REV_AT_EPOCH":52607,"BSTAR":0.021302,"MEAN_MOTION_DOT":0.00027413,"MEAN_MOTION_DDOT":0},{"OBJECT_NAME":"UNKNOWN","OBJECT_ID":"","EPOCH":"2026-03-06T14:09:10.651968","MEAN_MOTION":13.54665541,"ECCENTRICITY":0.0110467,"INCLINATION":99.4238,"RA_OF_ASC_NODE":120.5944,"ARG_OF_PERICENTER":97.4173,"MEAN_ANOMALY":263.9533,"EPHEMERIS_TYPE":0,"CLASSIFICATION_TYPE":"U","NORAD_CAT_ID":82311,"ELEMENT_SET_NO":999,"REV_AT_EPOCH":56167,"BSTAR":0.0009125,"MEAN_MOTION_DOT":6.09e-6,"MEAN_MOTION_DDOT":0},{"OBJECT_NAME":"UNKNOWN","OBJECT_ID":"","EPOCH":"2026-03-05T20:22:23.974176","MEAN_MOTION":13.15683187,"ECCENTRICITY":0.0450155,"INCLINATION":66.9396,"RA_OF_ASC_NODE":16.0036,"ARG_OF_PERICENTER":112.2057,"MEAN_ANOMALY":252.7375,"EPHEMERIS_TYPE":0,"CLASSIFICATION_TYPE":"U","NORAD_CAT_ID":82363,"ELEMENT_SET_NO":999,"REV_AT_EPOCH":30119,"BSTAR":0.0017808,"MEAN_MOTION_DOT":1.066e-5,"MEAN_MOTION_DDOT":0},{"OBJECT_NAME":"UNKNOWN","OBJECT_ID":"","EPOCH":"2026-03-06T19:54:58.792896","MEAN_MOTION":13.98221915,"ECCENTRICITY":0.0084639,"INCLINATION":98.8956,"RA_OF_ASC_NODE":83.3544,"ARG_OF_PERICENTER":106.1725,"MEAN_ANOMALY":254.8774,"EPHEMERIS_TYPE":0,"CLASSIFICATION_TYPE":"U","NORAD_CAT_ID":82369,"ELEMENT_SET_NO":999,"REV_AT_EPOCH":56892,"BSTAR":0.0004789,"MEAN_MOTION_DOT":6.62e-6,"MEAN_MOTION_DDOT":0},{"OBJECT_NAME":"UNKNOWN","OBJECT_ID":"","EPOCH":"2026-03-04T14:31:28.094592","MEAN_MOTION":14.85459497,"ECCENTRICITY":0.0006719,"INCLINATION":98.3927,"RA_OF_ASC_NODE":297.4656,"ARG_OF_PERICENTER":247.9686,"MEAN_ANOMALY":112.0814,"EPHEMERIS_TYPE":0,"CLASSIFICATION_TYPE":"U","NORAD_CAT_ID":82381,"ELEMENT_SET_NO":999,"REV_AT_EPOCH":52294,"BSTAR":0.0042061,"MEAN_MOTION_DOT":0.00036412,"MEAN_MOTION_DDOT":0},{"OBJECT_NAME":"UNKNOWN","OBJECT_ID":"","EPOCH":"2026-03-07T14:11:34.210752","MEAN_MOTION":15.04829281,"ECCENTRICITY":0.0007331,"INCLINATION":86.6593,"RA_OF_ASC_NODE":118.9249,"ARG_OF_PERICENTER":188.3735,"MEAN_ANOMALY":171.7379,"EPHEMERIS_TYPE":0,"CLASSIFICATION_TYPE":"U","NORAD_CAT_ID":82402,"ELEMENT_SET_NO":999,"REV_AT_EPOCH":46722,"BSTAR":0.00052857,"MEAN_MOTION_DOT":7.498e-5,"MEAN_MOTION_DDOT":0},{"OBJECT_NAME":"UNKNOWN","OBJECT_ID":"","EPOCH":"2026-03-07T06:53:38.252256","MEAN_MOTION":14.58942563,"ECCENTRICITY":0.005669,"INCLINATION":74.0089,"RA_OF_ASC_NODE":179.2804,"ARG_OF_PERICENTER":321.9408,"MEAN_ANOMALY":37.7757,"EPHEMERIS_TYPE":0,"CLASSIFICATION_TYPE":"U","NORAD_CAT_ID":82432,"ELEMENT_SET_NO":999,"REV_AT_EPOCH":49523,"BSTAR":0.00056373,"MEAN_MOTION_DOT":2.673e-5,"MEAN_MOTION_DDOT":0}]
