UNKNOWN                 
1 82051U          26046.47695657  .00006292  00000+0  20421-2 0  9992
2 82051  98.7424 137.9574 0090792  69.8098 291.2824 14.36892613581707
UNKNOWN                 
1 82073U          26066.64264728  .00002729  00000+0  69348-3 0  9991
2 82073  97.7395 139.6736 0205971  28.8551 332.3847 14.39467626587334
UNKNOWN                 
1 82139U          26063.98220889  .00003148  00000+0  15670-2 0  9992
2 82139  99.0127 137.8384 0084510 169.2082 191.0930 14.15880577491758
UNKNOWN                 
1 82162U          26066.26160320  .00004626  00000+0  67779-2 0  9994
2 82162 100.4720   0.6276 0061061  19.9932 340.3576 13.54333345515747
UNKNOWN                 
1 82189U          26065.91641543  .00000313  00000+0  11821-3 0  9992
2 82189  74.0320 253.9619 0015579  63.4192 296.8555 14.35278808644496
UNKNOWN                 
1 82199U          26066.57922326  .00000770  00000+0  65358-3 0  9998
2 82199  82.9683 170.1058 0039236 154.6076 219.3599 13.85887429621441
UNKNOWN                 
1 82205U          26064.26077809  .00005202  00000+0  14257-2 0  9993
2 82205  63.0114  10.9866 0496493 301.5238  53.8211 13.93962198619503
UNKNOWN                 
1 82223U          26066.65612217  .00003022  00000+0  16297-2 0  9990
2 82223  99.3147 320.9230 0068159 106.6350 254.2318 14.12325746460775
UNKNOWN                 
1 82250U          26065.70765963  .00005176  00000+0  26518-2 0  9991
2 82250  98.9077 335.9159 0072098 315.5005  73.2659 14.14547974628508
UNKNOWN                 
1 82272U          26065.95056391  .00000752  00000+0  24811-2 0  9999
2 82272  67.5255  48.2280 0752060  51.9220 314.7220 12.33606487282322
UNKNOWN                 
1 82303U          26065.59976716  .00027413  00000+0  21302-1 0  9990
2 82303  81.9384 290.4214 0036722  50.3316 340.6620 13.91960469526070
UNKNOWN                 
1 82311U          26065.58970662  .00000609  00000+0  91250-3 0  9991
2 82311  99.4238 120.5944 0110467  97.4173 263.9533 13.54665541561673
UNKNOWN                 
1 82363U          26064.84888859  .00001066  00000+0  17808-2 0  9996
2 82363  66.9396  16.0036 0450155 112.2057 252.7375 13.15683187301195
UNKNOWN                 
1 82369U          26065.82984714  .00000662  00000+0  47890-3 0  9994
2 82369  98.8956  83.3544 0084639 106.1725 254.8774 13.98221915568922
UNKNOWN                 
1 82381U          26063.60518628  .00036412  00000+0  42061-2 0  9995
2 82381  98.3927 297.4656 0006719 247.9686 112.0814 14.85459497522941
UNKNOWN                 
1 82402U          26066.59136818  .00007498  00000+0  52857-3 0  9994
2 82402  86.6593 118.9249 0007331 188.3735 171.7379 15.04829281467224
UNKNOWN                 
1 82432U          26066.28724829  .00002673  00000+0  56373-3 0  9995
2 82432  74.0089 179.2804 0056690 321.9408  37.7757 14.58942563495239
